City,Street,State,PostalCode,Country,PhoneNumber
Independence,1009 Per Rd.,Missouri,74160,US,1 (342) 249-9847
Fort Worth,7757 Sem Ave,Texas,11987,US,1 (642) 259-8307
Baltimore,543-9447 Suspendisse Street,Maryland,43992,US,1 (777) 794-4883
Idaho Falls,197-6981 Tortor Street,Idaho,71036,US,1 (263) 957-1591
Colchester,8629 Accumsan Ave,Vermont,73695,US,1 (758) 887-1030
Independence,648-5613 Sodales St.,Missouri,79615,US,1 (291) 631-6778
Cleveland,"P.O. Box 245, 2675 Nisl. Street",Ohio,60311,US,1 (554) 553-1457
Jonesboro,8811 Tincidunt St.,Arkansas,71295,US,1 (686) 983-2903
Reading,"P.O. Box 309, 9892 Et Road",Pennsylvania,38786,US,1 (534) 290-6593
Sacramento,"P.O. Box 283, 662 Consequat Road",California,94991,US,1 (684) 567-0342
Jefferson City,Ap #628-6385 Parturient Ave,Missouri,28909,US,1 (966) 739-9714
Colchester,"P.O. Box 284, 1595 Rutrum Ave",Vermont,29069,US,1 (405) 255-7059
Augusta,Ap #419-3126 Id Street,Maine,73701,US,1 (471) 647-7657
Columbus,2194 Vestibulum Rd.,Georgia,74882,US,1 (505) 337-8209
Springfield,651-9753 Fringilla St.,Illinois,36348,US,1 (266) 477-1710
Warren,Ap #394-5342 Vel Rd.,Michigan,15929,US,1 (996) 480-5533
Annapolis,4112 Neque Ave,Maryland,83956,US,1 (330) 957-5893
Paradise,"P.O. Box 349, 9132 Aliquam Rd.",Nevada,38555,US,1 (218) 490-1282
Topeka,"P.O. Box 432, 1767 Eu Rd.",Kansas,79675,US,1 (298) 935-4581
Boston,"P.O. Box 201, 4963 Dui, Road",Massachusetts,64876,US,1 (903) 729-8372
Fort Worth,"P.O. Box 910, 8987 Nunc Rd.",Texas,22281,US,1 (846) 347-5783
Columbus,"P.O. Box 665, 1675 Eu Road",Ohio,52171,US,1 (254) 939-7201
Kailua,485 Et Rd.,Hawaii,16357,US,1 (890) 529-1454
Newark,"P.O. Box 448, 3230 Quam, Street",Delaware,65244,US,1 (679) 195-7415
Missoula,Ap #664-5143 Sed St.,Montana,73650,US,1 (279) 886-4278
West Jordan,893-1891 Velit Ave,Utah,25038,US,1 (828) 862-1449
Paradise,"959 Laoreet, Rd.",Nevada,82065,US,1 (362) 558-7442
Birmingham,Ap #701-9360 Euismod Av.,Alabama,35722,US,1 (971) 736-9065
Birmingham,"P.O. Box 731, 3222 A Ave",Alabama,36755,US,1 (526) 175-5194
Gaithersburg,2168 Ligula. Street,Maryland,47419,US,1 (756) 578-2593
Fort Smith,Ap #541-6788 Cursus. Ave,Arkansas,71817,US,1 (956) 264-0826
Fayetteville,Ap #227-4883 Sit Av.,Arkansas,71511,US,1 (678) 543-7712
Casper,Ap #659-3719 Rutrum Avenue,Wyoming,68160,US,1 (207) 441-9222
Southaven,780-9588 Venenatis Street,Mississippi,65330,US,1 (579) 133-9604
Evansville,Ap #199-2520 Pellentesque Rd.,Indiana,95102,US,1 (973) 938-0305
Hillsboro,7126 Non Rd.,Oregon,90188,US,1 (695) 709-2548
Hartford,690-4805 In St.,Connecticut,73953,US,1 (453) 244-3879
Bellevue,"P.O. Box 210, 6104 A Av.",Washington,99606,US,1 (244) 312-6916
South Portland,4384 Non Road,Maine,13999,US,1 (744) 218-5005
Sioux City,3559 Tempus St.,Iowa,75982,US,1 (482) 727-9737
Lawton,Ap #363-6604 Purus. Ave,Oklahoma,61542,US,1 (438) 113-8322
South Portland,"P.O. Box 675, 6821 Tristique Avenue",Maine,89338,US,1 (479) 273-3241
Pocatello,"707-4160 Tellus, Av.",Idaho,40563,US,1 (120) 991-5720
Colorado Springs,"384-7215 Iaculis, Ave",Colorado,63753,US,1 (183) 279-6337
Lawton,566-5927 Sagittis. Avenue,Oklahoma,74986,US,1 (102) 244-7287
Metairie,"P.O. Box 891, 4658 Orci. Road",Louisiana,60002,US,1 (926) 162-3468
Nashville,659-1950 Aliquam Street,Tennessee,71528,US,1 (427) 227-4698
Kansas City,Ap #866-7723 Semper Avenue,Kansas,74876,US,1 (936) 541-7899
Columbia,958-462 Cum Street,Maryland,64098,US,1 (825) 508-2212
Stamford,"P.O. Box 323, 1045 Curabitur Street",Connecticut,80916,US,1 (906) 759-3244
Lewiston,"747-8950 Montes, Road",Maine,37223,US,1 (609) 103-2585
Newark,1999 Quis Ave,Delaware,85760,US,1 (984) 177-9906
Billings,336-6778 Donec Ave,Montana,33506,US,1 (934) 390-8789
Racine,Ap #392-1652 Curabitur Road,Wisconsin,45000,US,1 (420) 382-0519
Warren,779 Congue Road,Michigan,70628,US,1 (151) 923-2694
West Valley City,3638 Turpis Av.,Utah,11243,US,1 (741) 379-3087
Hattiesburg,"P.O. Box 876, 715 Quis Ave",Mississippi,79611,US,1 (133) 350-7335
Lincoln,"290-6955 Sed, Road",Nebraska,42800,US,1 (372) 504-6312
Lowell,"Ap #407-4567 Semper, Road",Massachusetts,47295,US,1 (545) 788-7677
Salt Lake City,Ap #196-5802 Mi. Rd.,Utah,88037,US,1 (645) 168-3001
Frederick,"P.O. Box 960, 7551 Et Av.",Maryland,65436,US,1 (382) 707-3224
Olympia,"P.O. Box 857, 412 Nullam Ave",Washington,86952,US,1 (140) 945-2074
San Antonio,9924 Dui Street,Texas,23321,US,1 (723) 860-4185
Birmingham,Ap #517-2072 Risus St.,Alabama,35339,US,1 (703) 142-7478
Tacoma,142-8016 Et Rd.,Washington,87109,US,1 (326) 978-8376
Rutland,Ap #797-9813 Vitae Road,Vermont,67259,US,1 (282) 426-5491
Reading,810-3008 Donec Avenue,Pennsylvania,57295,US,1 (474) 845-9399
Oklahoma City,110-7978 Turpis. Rd.,Oklahoma,71550,US,1 (962) 988-1360
Hartford,"P.O. Box 781, 1453 Erat Av.",Connecticut,92313,US,1 (308) 566-1469
Lincoln,"P.O. Box 362, 8183 Sollicitudin St.",Nebraska,30372,US,1 (191) 505-7716
Cambridge,"P.O. Box 249, 7066 Consectetuer Street",Massachusetts,84181,US,1 (308) 251-2695
Gillette,8518 Senectus Avenue,Wyoming,21538,US,1 (802) 978-2163
Norman,"P.O. Box 440, 5608 Curabitur Av.",Oklahoma,53704,US,1 (726) 151-4611
Independence,Ap #899-1730 Duis Av.,Missouri,63275,US,1 (499) 679-4581
Lexington,417-2621 Integer St.,Kentucky,42832,US,1 (654) 160-5004
Mesa,2723 Metus. Rd.,Arizona,85128,US,1 (260) 755-2531
Columbia,"P.O. Box 194, 3933 Egestas Av.",Maryland,57440,US,1 (504) 511-4162
Fairbanks,530-944 Tempus Rd.,Alaska,99801,US,1 (353) 727-7411
Hilo,"P.O. Box 824, 4741 Tortor, Ave",Hawaii,15967,US,1 (836) 351-6438
Bangor,"P.O. Box 426, 2729 Magna. Av.",Maine,34591,US,1 (330) 615-9104
Fresno,8548 Nibh Avenue,California,93611,US,1 (598) 921-6494
Lexington,2390 Vivamus Street,Kentucky,87385,US,1 (713) 372-8542
Idaho Falls,"9547 Et, Rd.",Idaho,15334,US,1 (562) 985-1169
Pike Creek,6660 Eu Avenue,Delaware,74951,US,1 (749) 909-5784
Augusta,"260-7878 Amet, Rd.",Georgia,87085,US,1 (242) 720-6184
Lowell,"P.O. Box 576, 1458 Luctus Avenue",Massachusetts,99160,US,1 (709) 205-4127
Pocatello,"P.O. Box 512, 1985 Vulputate St.",Idaho,70840,US,1 (788) 956-1787
Georgia,Ap #196-1734 Massa Rd.,Georgia,58694,US,1 (632) 191-2300
Springdale,1759 Nisl Road,Arkansas,71643,US,1 (236) 288-8549
Kansas City,630 Tempor Av.,Kansas,73334,US,1 (145) 206-8952
Kailua,Ap #923-7342 Tortor. Rd.,Hawaii,38852,US,1 (559) 840-6579
Colchester,670-3648 Magnis St.,Vermont,73235,US,1 (119) 517-3408
Spokane,"P.O. Box 101, 665 Vulputate, Av.",Washington,33309,US,1 (210) 957-6019
Aurora,"272-1925 Eu, Street",Colorado,47832,US,1 (751) 867-2476
Sandy,2752 Enim. Avenue,Utah,54937,US,1 (865) 883-6900
Norfolk,2440 Erat Ave,Virginia,85242,US,1 (258) 354-1558
Hilo,Ap #788-6734 Tempor Rd.,Hawaii,32540,US,1 (105) 503-3193
Jackson,Ap #671-2456 Mauris Rd.,Mississippi,85428,US,1 (900) 523-8601
Hattiesburg,"P.O. Box 210, 9096 Lectus, St.",Mississippi,66552,US,1 (597) 219-9297
San Antonio,"741-7554 Ac, Road",Texas,43939,US,1 (834) 184-4300
Harrisburg,"P.O. Box 460, 3196 Aliquet St.",Pennsylvania,32955,US,1 (847) 286-7951
Fayetteville,Ap #526-5896 Pellentesque Street,Arkansas,72177,US,1 (580) 439-1160
Burlington,"P.O. Box 837, 3474 Vestibulum St.",Vermont,62827,US,1 (429) 940-6127
Portland,8822 Eu Rd.,Maine,94383,US,1 (742) 326-1757
Chicago,Ap #867-4933 Tincidunt St.,Illinois,77912,US,1 (724) 460-6265
Boise,Ap #120-235 Eu Ave,Idaho,30343,US,1 (342) 190-3584
Ketchikan,Ap #397-7527 Nisi Rd.,Alaska,99703,US,1 (227) 282-7915
Tallahassee,Ap #478-7665 Magna. Rd.,Florida,71319,US,1 (306) 327-4767
Akron,Ap #778-3507 Varius Ave,Ohio,96803,US,1 (455) 118-3319
Glendale,4398 Vestibulum Avenue,Arizona,85789,US,1 (765) 520-0644
Erie,907-1819 Dictum Avenue,Pennsylvania,80573,US,1 (127) 867-3629
Hattiesburg,1538 Nulla Avenue,Mississippi,89624,US,1 (753) 159-9601
Fort Collins,"P.O. Box 562, 2722 Integer Street",Colorado,77175,US,1 (587) 646-3330
Memphis,7499 Lacus. Road,Tennessee,48940,US,1 (690) 151-6904
Fort Wayne,558-9388 Condimentum. Ave,Indiana,37715,US,1 (994) 565-7792
Columbus,3876 Phasellus Avenue,Ohio,65195,US,1 (900) 222-0133
Helena,Ap #945-1507 A Rd.,Montana,71205,US,1 (139) 888-9050
Davenport,"P.O. Box 590, 1322 Nec Street",Iowa,56314,US,1 (982) 851-0908
Louisville,"Ap #926-1184 Vestibulum, St.",Kentucky,15268,US,1 (294) 199-9245
Montgomery,Ap #946-9012 Morbi St.,Alabama,36171,US,1 (715) 515-8034
New Orleans,962-1193 Sit Road,Louisiana,31848,US,1 (204) 254-6975
San Jose,2007 Lacus. Ave,California,90776,US,1 (684) 173-8676
Billings,432-2446 Sed St.,Montana,17585,US,1 (120) 955-6330
Chattanooga,"P.O. Box 572, 4398 Id Street",Tennessee,89033,US,1 (482) 964-2573
Sacramento,Ap #243-7787 Faucibus Rd.,California,95662,US,1 (888) 521-1099
Huntsville,"Ap #950-8146 A, St.",Alabama,36080,US,1 (563) 251-1259
Chicago,9032 Dictum Rd.,Illinois,94289,US,1 (895) 648-3840
Davenport,4526 Dui. Rd.,Iowa,94953,US,1 (419) 450-7481
Kaneohe,"P.O. Box 103, 6542 Vulputate, Ave",Hawaii,78399,US,1 (157) 980-9149
Miami,119-5474 Metus. Rd.,Florida,72898,US,1 (301) 167-5743
Saint Paul,498-5927 A St.,Minnesota,56261,US,1 (387) 111-7347
Norman,944-2065 Sem St.,Oklahoma,60978,US,1 (391) 571-0752
Lawton,3418 Per Street,Oklahoma,16845,US,1 (524) 739-0148
Harrisburg,"P.O. Box 340, 748 Id St.",Pennsylvania,67802,US,1 (685) 186-2971
Portland,Ap #472-6309 Odio Rd.,Maine,17066,US,1 (487) 541-0084
Anchorage,"P.O. Box 176, 4665 Magnis Rd.",Alaska,99626,US,1 (372) 213-2501
Fort Worth,Ap #283-6247 Velit. Av.,Texas,79624,US,1 (150) 577-5869
Olathe,Ap #285-1406 Nec Rd.,Kansas,16270,US,1 (983) 174-4638
Bear,"P.O. Box 179, 7659 Arcu Rd.",Delaware,28025,US,1 (924) 530-3229
Kailua,515-8398 Sit Av.,Hawaii,56470,US,1 (914) 702-2494
Newark,Ap #620-8078 Natoque Rd.,Delaware,22973,US,1 (712) 803-7999
Kansas City,6007 Ante Av.,Kansas,76026,US,1 (251) 587-8457
Fort Worth,Ap #237-4533 At Rd.,Texas,43553,US,1 (371) 401-8745
Rutland,Ap #840-779 Eros Av.,Vermont,96277,US,1 (785) 894-8534
Hillsboro,Ap #525-8349 Accumsan Ave,Oregon,44706,US,1 (172) 335-1366
Kailua,"P.O. Box 276, 8935 Sapien, Avenue",Hawaii,49129,US,1 (722) 169-1990
Hartford,151 In St.,Connecticut,75345,US,1 (874) 936-6475
Paradise,Ap #454-6695 Enim. Avenue,Nevada,89051,US,1 (749) 668-2881
Rockford,8341 Id Road,Illinois,62644,US,1 (901) 691-5680
Missoula,489-2866 Molestie St.,Montana,44262,US,1 (439) 176-4380
Spokane,2020 Rutrum. Ave,Washington,79549,US,1 (577) 375-6584
Las Vegas,780-5653 Gravida. Rd.,Nevada,36243,US,1 (980) 487-1377
Ketchikan,640-7131 Est. St.,Alaska,99584,US,1 (758) 696-7334
Virginia Beach,"P.O. Box 862, 245 Ante. St.",Virginia,34850,US,1 (128) 717-6975
Tallahassee,618-545 Eros. St.,Florida,88521,US,1 (220) 886-0877
Columbia,2708 Donec St.,Maryland,69177,US,1 (738) 850-7076
Hattiesburg,"Ap #281-6125 Nec, Street",Mississippi,54553,US,1 (717) 735-3592
Lawton,788-9756 Vitae St.,Oklahoma,29445,US,1 (140) 162-1377
Phoenix,960-9751 Turpis St.,Arizona,85435,US,1 (327) 877-6418
Clarksville,6910 Egestas St.,Tennessee,33715,US,1 (430) 350-8938
Auburn,4276 Mauris Avenue,Maine,78385,US,1 (537) 730-4943
Norman,Ap #885-9239 Lectus Street,Oklahoma,79742,US,1 (804) 822-3295
Aurora,6824 Et Rd.,Illinois,49018,US,1 (803) 525-4104
Annapolis,"4913 A, Avenue",Maryland,26512,US,1 (440) 362-2210
Missoula,445-4109 Et Ave,Montana,94749,US,1 (868) 560-8272
Grand Island,Ap #174-8633 Est Rd.,Nebraska,85183,US,1 (962) 756-3686
College,Ap #927-7414 Curabitur St.,Alaska,99909,US,1 (459) 540-6148
Frederick,Ap #989-1926 Ultrices. Rd.,Maryland,34750,US,1 (406) 758-7893
Covington,"P.O. Box 716, 5668 Felis Av.",Kentucky,53942,US,1 (861) 242-7429
Philadelphia,"Ap #283-4714 Nunc, Av.",Pennsylvania,95617,US,1 (296) 676-8864
Tampa,955-6945 Aenean Rd.,Florida,87142,US,1 (781) 764-4868
Springfield,Ap #462-4493 Cum St.,Missouri,63977,US,1 (676) 982-7818
Los Angeles,3507 Mauris Avenue,California,91402,US,1 (728) 729-9952
Kapolei,3249 Urna Rd.,Hawaii,67046,US,1 (307) 374-2595
Omaha,Ap #782-6928 Felis. St.,Nebraska,10566,US,1 (938) 189-6825
Worcester,1846 Nec Avenue,Massachusetts,58747,US,1 (168) 430-0306
Hartford,"P.O. Box 903, 3142 Arcu Rd.",Connecticut,23367,US,1 (432) 188-6502
Stamford,"2948 Id, Rd.",Connecticut,22506,US,1 (564) 115-3528
Lowell,2949 Sit Road,Massachusetts,13418,US,1 (757) 624-5161
Rock Springs,Ap #304-6683 In Ave,Wyoming,38406,US,1 (483) 870-0518
Fort Worth,194-9482 Nunc. St.,Texas,58777,US,1 (285) 146-2309
Des Moines,"P.O. Box 678, 6295 Dictum Street",Iowa,50977,US,1 (865) 755-2551
Toledo,Ap #245-9261 Ac Rd.,Ohio,97659,US,1 (753) 224-5975
Mesa,"P.O. Box 347, 6877 Iaculis Street",Arizona,85244,US,1 (882) 420-2212
Lincoln,325 Ac Ave,Nebraska,11757,US,1 (535) 276-6480
Kansas City,"P.O. Box 514, 732 Sociis Ave",Kansas,73564,US,1 (485) 781-9390
Dover,Ap #599-1579 Leo Ave,Delaware,74781,US,1 (588) 496-9349
Warren,Ap #781-3678 Vestibulum Avenue,Michigan,49655,US,1 (889) 809-0080
Montgomery,Ap #421-9154 Scelerisque Avenue,Alabama,35477,US,1 (619) 562-5471
Paradise,Ap #847-7246 Enim Rd.,Nevada,92563,US,1 (457) 129-6841
Gary,460-3040 Suspendisse St.,Indiana,27613,US,1 (909) 917-3223
Grand Island,Ap #111-7168 Ipsum. Street,Nebraska,19549,US,1 (259) 117-1961
Tucson,Ap #413-1855 Suspendisse Road,Arizona,85879,US,1 (857) 729-5700
Montgomery,944-6255 Scelerisque Road,Alabama,35803,US,1 (500) 241-8977
St. Petersburg,Ap #559-4405 Neque St.,Florida,30638,US,1 (561) 771-3545
Tulsa,6525 Mauris St.,Oklahoma,54181,US,1 (567) 353-7632
Provo,332-4720 Fringilla Rd.,Utah,87443,US,1 (433) 283-2506
Newport News,Ap #769-7144 Nulla St.,Virginia,20895,US,1 (668) 418-7193
Fayetteville,"6475 Urna, Street",Arkansas,72828,US,1 (986) 360-7008
Gresham,1571 Eget St.,Oregon,13199,US,1 (568) 243-1328
Norman,707-2571 Augue Av.,Oklahoma,92329,US,1 (296) 376-5963
Joliet,"P.O. Box 686, 8744 Lectus Rd.",Illinois,86184,US,1 (718) 695-2118
Hattiesburg,"P.O. Box 854, 712 Turpis Street",Mississippi,95275,US,1 (225) 222-9289
Memphis,4212 Euismod Rd.,Tennessee,54673,US,1 (751) 772-1774
New Haven,Ap #614-7555 Convallis Road,Connecticut,67866,US,1 (404) 412-3507
Topeka,3061 Tempor Road,Kansas,74102,US,1 (223) 789-7578
Reading,"631-7871 Dui, Rd.",Pennsylvania,95272,US,1 (464) 766-8756
Columbia,Ap #878-6844 Massa Av.,Maryland,44074,US,1 (349) 366-1839
Idaho Falls,Ap #386-283 Mauris Rd.,Idaho,15726,US,1 (965) 736-1998
Kapolei,9821 Phasellus Rd.,Hawaii,16634,US,1 (938) 253-7940
Henderson,"P.O. Box 329, 4081 Ac St.",Nevada,26473,US,1 (150) 813-8832
Savannah,153-1546 Nullam Street,Georgia,94591,US,1 (744) 971-0953
Wilmington,941-4191 Nec Road,Delaware,46562,US,1 (942) 867-7102
Duluth,958 Diam Street,Minnesota,47746,US,1 (911) 408-8649
Chesapeake,"P.O. Box 348, 2910 Litora Avenue",Virginia,45340,US,1 (408) 629-1673
West Valley City,Ap #534-1300 Massa. Road,Utah,56811,US,1 (836) 818-1400
Southaven,"P.O. Box 101, 3547 Augue St.",Mississippi,35298,US,1 (991) 904-7717
Shreveport,264-983 Class Rd.,Louisiana,59246,US,1 (788) 214-4784
Metairie,Ap #726-6280 Nascetur Ave,Louisiana,37897,US,1 (963) 393-5176
Harrisburg,Ap #608-4804 Blandit Avenue,Pennsylvania,77119,US,1 (210) 779-4377
Jonesboro,"2816 Elementum, Avenue",Arkansas,71862,US,1 (458) 931-4959
Olathe,5883 Et Road,Kansas,49142,US,1 (890) 541-1535
Ketchikan,Ap #948-1885 Volutpat Street,Alaska,99951,US,1 (264) 158-4321
Aurora,"416-5163 Ornare, Road",Colorado,66163,US,1 (453) 209-3977
Lawton,2845 Et Avenue,Oklahoma,26789,US,1 (738) 975-9828
South Portland,498-5700 Facilisis Rd.,Maine,21935,US,1 (687) 713-2136
Phoenix,8060 Natoque Street,Arizona,86442,US,1 (685) 562-8491
Louisville,457-4687 Elit. Av.,Kentucky,28759,US,1 (623) 532-1603
Dallas,Ap #173-6141 Ligula Ave,Texas,71866,US,1 (748) 204-0702
Broken Arrow,942-817 Id Road,Oklahoma,90712,US,1 (713) 384-3124
Tucson,"P.O. Box 250, 525 Nec, Rd.",Arizona,85818,US,1 (151) 751-4158
Duluth,"P.O. Box 195, 1303 Nec Avenue",Minnesota,39625,US,1 (863) 322-2864
Madison,353-5659 Vivamus Street,Wisconsin,30813,US,1 (439) 972-9239
Biloxi,Ap #160-2486 Iaculis Avenue,Mississippi,91653,US,1 (787) 541-8991
Warren,4294 Magna Road,Michigan,41173,US,1 (358) 141-6909
Baltimore,"P.O. Box 329, 9105 Commodo St.",Maryland,79239,US,1 (540) 377-6367
Cheyenne,2882 Nullam Rd.,Wyoming,81615,US,1 (401) 193-7035
Missoula,Ap #924-6354 Id Rd.,Montana,76645,US,1 (959) 900-7854
Denver,"P.O. Box 440, 3877 Pede. Avenue",Colorado,68025,US,1 (461) 485-6617
Jefferson City,Ap #348-3833 Nibh Street,Missouri,86028,US,1 (399) 805-3771
Chattanooga,Ap #798-4549 In Road,Tennessee,31535,US,1 (793) 829-8399
Salem,831-1558 Molestie. Av.,Oregon,30951,US,1 (279) 663-5020
Olathe,233-9917 Suspendisse Road,Kansas,90567,US,1 (742) 212-0939
Des Moines,"P.O. Box 291, 3540 Semper Road",Iowa,15326,US,1 (771) 633-9880
Nampa,Ap #327-8079 Nunc Road,Idaho,81990,US,1 (752) 947-9520
Laramie,Ap #357-9236 Nulla Street,Wyoming,32717,US,1 (747) 362-9791
Mobile,953-7149 Velit. Street,Alabama,35506,US,1 (672) 233-3233
Tuscaloosa,510-4819 Nulla. Ave,Alabama,36857,US,1 (640) 571-0472
Austin,9358 Blandit Ave,Texas,40968,US,1 (211) 464-4926
Seattle,318-2692 Vehicula Rd.,Washington,66523,US,1 (110) 550-1237
Tucson,955-1213 Fermentum Rd.,Arizona,86446,US,1 (281) 157-8568
Bozeman,Ap #663-6421 Integer Rd.,Montana,80107,US,1 (971) 407-6875
Pittsburgh,Ap #925-5823 Mauris St.,Pennsylvania,49868,US,1 (480) 486-2931
Gulfport,5107 Et St.,Mississippi,68764,US,1 (710) 462-7220
Columbia,2037 Auctor Rd.,Missouri,50103,US,1 (591) 557-9501
Des Moines,138-1869 Libero Av.,Iowa,23535,US,1 (830) 660-7044
Cambridge,Ap #537-1445 Cras St.,Massachusetts,33223,US,1 (865) 989-3267
Owensboro,4251 Eu Av.,Kentucky,27834,US,1 (986) 655-6455
Great Falls,2818 Dolor Avenue,Montana,35808,US,1 (306) 241-5227
Rockville,947 Aliquam Street,Maryland,16165,US,1 (420) 228-3405
Bozeman,117-1626 Arcu Rd.,Montana,13484,US,1 (290) 815-3263
Chandler,7903 Proin St.,Arizona,85332,US,1 (974) 110-7715
Columbus,280-5888 Tellus St.,Ohio,72142,US,1 (542) 736-9926
Virginia Beach,"7716 A, Avenue",Virginia,13015,US,1 (405) 525-0362
Fort Collins,Ap #187-9224 Nascetur Rd.,Colorado,78800,US,1 (449) 441-0846
Seattle,Ap #384-5613 Consequat Ave,Washington,92313,US,1 (539) 781-8194
Burlington,Ap #207-5661 Molestie St.,Vermont,37044,US,1 (533) 890-9708
Austin,710-6631 Proin Avenue,Texas,81152,US,1 (503) 640-7376
Gulfport,"P.O. Box 867, 5832 Lobortis Av.",Mississippi,95838,US,1 (118) 348-1942
Springfield,2512 Et Street,Massachusetts,46469,US,1 (606) 973-1143
Fairbanks,Ap #201-8032 Sapien. Av.,Alaska,99658,US,1 (590) 387-8205
Orlando,9342 Nunc Rd.,Florida,95132,US,1 (610) 591-8214
Olathe,100 Penatibus Rd.,Kansas,37600,US,1 (499) 471-9538
Madison,"P.O. Box 766, 2448 Accumsan Av.",Wisconsin,53722,US,1 (557) 824-1465
Rochester,6492 Tincidunt Road,Minnesota,31330,US,1 (730) 759-0589
Fayetteville,Ap #805-6843 Mauris Rd.,Arkansas,72922,US,1 (118) 916-0143
Minneapolis,Ap #586-534 Non Ave,Minnesota,83927,US,1 (350) 667-9020
Fort Worth,359-1642 Penatibus Ave,Texas,94879,US,1 (762) 910-2356
South Burlington,"P.O. Box 230, 1860 Mi Rd.",Vermont,48061,US,1 (982) 774-8091
Birmingham,"P.O. Box 540, 3536 Nam St.",Alabama,36197,US,1 (786) 394-8141
Tallahassee,Ap #810-4027 Mi Rd.,Florida,39716,US,1 (868) 184-0011
Bridgeport,143-2066 Erat Street,Connecticut,71229,US,1 (100) 270-8420
Detroit,"887-8490 Eu, Rd.",Michigan,64521,US,1 (126) 434-5979
Springfield,209-8926 Eget Av.,Missouri,36234,US,1 (177) 751-6985
Nashville,582-5092 Lacus. Street,Tennessee,16273,US,1 (283) 619-8289
Racine,Ap #689-8631 Nisi. Road,Wisconsin,47788,US,1 (859) 894-5956
Springfield,"P.O. Box 791, 5555 Tincidunt Ave",Missouri,44440,US,1 (844) 320-0073
Warren,4948 In Rd.,Michigan,47755,US,1 (786) 269-4889
Jonesboro,"123-484 Fringilla, Road",Arkansas,72828,US,1 (223) 964-4931
New Haven,2489 Lectus Av.,Connecticut,31272,US,1 (591) 231-6019
Montgomery,606 Per Avenue,Alabama,35861,US,1 (291) 989-8043
Aurora,"P.O. Box 258, 3847 Sagittis. Rd.",Colorado,95698,US,1 (213) 744-0073
Birmingham,1636 Magnis St.,Alabama,35951,US,1 (678) 869-6140
St. Petersburg,Ap #900-4101 At Avenue,Florida,96871,US,1 (562) 786-1546
Columbus,2318 Mi Av.,Georgia,91075,US,1 (582) 926-9204
Eugene,442-1261 Morbi Rd.,Oregon,15584,US,1 (502) 273-6257
Fayetteville,Ap #842-1008 Nulla Rd.,Arkansas,71515,US,1 (326) 910-2364
Wichita,261-9736 Sodales St.,Kansas,79008,US,1 (169) 504-3767
Akron,"P.O. Box 676, 4539 Adipiscing Ave",Ohio,42094,US,1 (692) 631-3479
Chattanooga,8142 Urna Street,Tennessee,80444,US,1 (712) 269-9052
Milwaukee,Ap #707-2139 Ipsum Av.,Wisconsin,78094,US,1 (449) 623-6143
Chattanooga,"3958 Dui, St.",Tennessee,49202,US,1 (866) 152-3168
Bangor,967 Hendrerit Ave,Maine,68097,US,1 (763) 988-3878
Davenport,3969 Ultricies Avenue,Iowa,82920,US,1 (957) 946-0461
Kaneohe,"P.O. Box 283, 2507 Tincidunt Av.",Hawaii,67131,US,1 (450) 810-9326
Henderson,"P.O. Box 945, 1151 Ante Avenue",Nevada,84479,US,1 (243) 674-6148
San Jose,Ap #259-5919 Turpis Street,California,96606,US,1 (924) 163-7786
Rockville,341-7579 Nisl. Rd.,Maryland,85817,US,1 (927) 191-8706
Las Vegas,Ap #813-1106 Porttitor Rd.,Nevada,72957,US,1 (821) 897-5344
Iowa City,Ap #619-1605 Faucibus Avenue,Iowa,15091,US,1 (519) 644-6060
Lowell,Ap #876-7865 Volutpat. St.,Massachusetts,51104,US,1 (481) 964-9245
Vancouver,"P.O. Box 823, 5557 Sapien. St.",Washington,78932,US,1 (865) 479-8030
Tulsa,257-5482 Sagittis. Av.,Oklahoma,39260,US,1 (381) 304-8097
Omaha,815-3314 Nascetur Road,Nebraska,44189,US,1 (163) 746-8383
Essex,470-6265 Semper St.,Vermont,82800,US,1 (947) 164-3012
Baltimore,721 Mauris Avenue,Maryland,67996,US,1 (805) 166-1272
Mesa,195-2847 Penatibus Ave,Arizona,86336,US,1 (416) 661-9179
Bellevue,819-4000 Rhoncus. Av.,Washington,16724,US,1 (227) 271-0727
Topeka,588-735 Aenean Street,Kansas,59387,US,1 (820) 684-0085
Richmond,717-3773 Quis St.,Virginia,77049,US,1 (664) 619-0357
Nashville,"P.O. Box 111, 5843 Nisl. St.",Tennessee,29626,US,1 (861) 432-4158
Butte,321-335 Pretium Avenue,Montana,78492,US,1 (147) 929-5838
Hilo,2026 Dui Street,Hawaii,83484,US,1 (778) 969-3472
Davenport,"P.O. Box 533, 9617 In Av.",Iowa,58210,US,1 (652) 467-4757
Salem,287-6438 Cursus. Road,Oregon,16750,US,1 (999) 897-4592
Wilmington,Ap #532-2285 Accumsan Road,Delaware,35220,US,1 (502) 106-0991
Jacksonville,4646 Molestie St.,Florida,55272,US,1 (845) 959-8670
Nampa,7110 Ac Ave,Idaho,14349,US,1 (859) 542-1022
Shreveport,"P.O. Box 983, 2744 Tempus Rd.",Louisiana,78982,US,1 (897) 853-6715
Frankfort,Ap #454-8885 Erat St.,Kentucky,14858,US,1 (118) 429-8286
Aurora,2603 Neque Av.,Colorado,29166,US,1 (156) 643-3956
Lexington,"864-5496 A, Avenue",Kentucky,22572,US,1 (727) 412-8557
Kansas City,Ap #590-4121 Vehicula Avenue,Kansas,43155,US,1 (353) 524-9491
Kansas City,505-2443 Et Road,Kansas,30830,US,1 (113) 407-4031
Lincoln,"P.O. Box 233, 3454 Enim Street",Nebraska,41156,US,1 (767) 201-4109
North Las Vegas,"P.O. Box 464, 3390 Adipiscing Rd.",Nevada,69332,US,1 (100) 144-5800
Lansing,Ap #307-261 Magnis Avenue,Michigan,62476,US,1 (786) 595-0148
Worcester,"264-9871 Fringilla, Street",Massachusetts,63575,US,1 (852) 245-0992
Nashville,"P.O. Box 515, 874 Ac Av.",Tennessee,21769,US,1 (573) 518-0405
Augusta,"P.O. Box 265, 5758 A Rd.",Maine,31111,US,1 (676) 263-7961
Montpelier,198-2636 Nullam Rd.,Vermont,56690,US,1 (312) 521-6715
Bangor,725-9944 A Road,Maine,48186,US,1 (902) 795-2828
Gillette,357-4621 Fusce Ave,Wyoming,94135,US,1 (851) 570-5077
Columbus,144-5942 Diam Rd.,Georgia,83895,US,1 (660) 852-1941
Eugene,Ap #155-2855 Et Street,Oregon,60062,US,1 (315) 232-9894
Grand Rapids,Ap #275-5362 Lorem St.,Michigan,53883,US,1 (812) 661-4428
South Portland,Ap #102-934 Mauris Road,Maine,94377,US,1 (134) 761-1089
Glendale,997-825 Phasellus Ave,Arizona,86156,US,1 (646) 518-0942
Houston,6749 Non Road,Texas,93150,US,1 (121) 971-8898
Aurora,297-4899 Nec St.,Illinois,51532,US,1 (591) 739-2755
Juneau,"P.O. Box 171, 1389 Consequat Street",Alaska,99576,US,1 (668) 481-8083
Portland,4906 Vestibulum Rd.,Maine,32650,US,1 (570) 590-2137
Gillette,"7720 Tincidunt, Road",Wyoming,41514,US,1 (256) 673-7960
Las Vegas,"P.O. Box 697, 9635 Neque Av.",Nevada,48982,US,1 (306) 707-1134
Topeka,6493 Vestibulum Av.,Kansas,35019,US,1 (773) 993-6292
Tucson,Ap #566-4254 Adipiscing St.,Arizona,86732,US,1 (780) 360-1689
Sandy,"P.O. Box 377, 7416 Ut Rd.",Utah,99419,US,1 (281) 693-7602
Sioux City,"P.O. Box 786, 6635 Vitae, Road",Iowa,45601,US,1 (391) 625-3002
Springfield,"899 Ac, Av.",Illinois,15269,US,1 (108) 131-7696
Toledo,5540 Diam Ave,Ohio,74813,US,1 (417) 713-4134
Jonesboro,"P.O. Box 208, 3913 Lectus St.",Arkansas,72076,US,1 (497) 482-8974
Des Moines,Ap #730-1767 Lacus St.,Iowa,28661,US,1 (294) 501-7500
Columbia,Ap #941-7494 Nullam Road,Missouri,55517,US,1 (287) 456-6824
Los Angeles,"P.O. Box 483, 7566 Purus St.",California,93063,US,1 (658) 519-5242
Erie,"731-2815 Placerat, Ave",Pennsylvania,93594,US,1 (893) 139-3042
Sterling Heights,Ap #771-143 Morbi Av.,Michigan,99629,US,1 (467) 338-4666
Covington,4342 Praesent Road,Kentucky,99836,US,1 (171) 123-6577
Gaithersburg,Ap #971-1745 Quis Rd.,Maryland,47846,US,1 (310) 434-5059
Anchorage,"P.O. Box 792, 370 Praesent Rd.",Alaska,99721,US,1 (827) 543-4004
Chicago,"P.O. Box 634, 9765 Gravida Street",Illinois,51602,US,1 (317) 612-0541
Salem,940 Nonummy Rd.,Oregon,12516,US,1 (361) 562-0163
Wyoming,"P.O. Box 309, 4707 Lorem, Street",Wyoming,18160,US,1 (456) 729-2309
Covington,786 Sagittis Av.,Kentucky,92294,US,1 (303) 537-0313
Seattle,"905-7575 Amet, Av.",Washington,90381,US,1 (586) 532-3682
Kailua,5952 Risus. Ave,Hawaii,32731,US,1 (530) 455-6358
Juneau,"P.O. Box 364, 7221 Dolor, Ave",Alaska,99724,US,1 (258) 827-3512
Baltimore,812-5646 At Avenue,Maryland,61837,US,1 (129) 104-4408
Broken Arrow,Ap #127-7128 Sit St.,Oklahoma,86178,US,1 (856) 339-5868
Worcester,695-4202 Interdum Ave,Massachusetts,53429,US,1 (668) 478-0265
Huntsville,494-3183 Interdum Road,Alabama,35853,US,1 (270) 768-8689
Huntsville,693-4380 Elit. Av.,Alabama,35763,US,1 (128) 493-7025
Bellevue,527-5947 Fermentum Avenue,Nebraska,11980,US,1 (580) 986-8920
Mesa,3253 Lorem Ave,Arizona,85830,US,1 (910) 386-6502
Dallas,Ap #587-8902 Sed Rd.,Texas,28748,US,1 (601) 101-3504
Wichita,7060 Ut Avenue,Kansas,38462,US,1 (104) 595-6796
Virginia Beach,2144 Quis Street,Virginia,82254,US,1 (180) 972-6430
Duluth,"P.O. Box 418, 2954 Odio Rd.",Minnesota,66710,US,1 (453) 619-1078
Gillette,219-1832 Commodo Road,Wyoming,92433,US,1 (977) 817-1381
Jacksonville,Ap #980-7631 Erat St.,Florida,44785,US,1 (893) 498-4654
Baton Rouge,828-9513 Sem St.,Louisiana,51272,US,1 (590) 182-6617
Cincinnati,4984 Elit St.,Ohio,81007,US,1 (212) 144-3997
San Antonio,Ap #407-5109 Ante. St.,Texas,96194,US,1 (851) 268-4581
Wyoming,Ap #451-1821 Odio St.,Wyoming,16994,US,1 (294) 132-1021
Bear,528 Ipsum Road,Delaware,59833,US,1 (315) 764-8528
Little Rock,"P.O. Box 204, 4031 Eget Ave",Arkansas,72932,US,1 (697) 401-9498
Sioux City,6111 Etiam Street,Iowa,65072,US,1 (109) 109-6008
Richmond,"Ap #168-7604 A, Avenue",Virginia,14637,US,1 (448) 823-8364
Bridgeport,Ap #550-9400 Tristique Road,Connecticut,17388,US,1 (797) 613-3797
Fort Smith,184-8054 Morbi St.,Arkansas,71085,US,1 (666) 235-2862
Aurora,Ap #787-9200 Enim St.,Colorado,37339,US,1 (545) 490-7291
Kailua,8490 Malesuada Road,Hawaii,92203,US,1 (795) 529-4035
Reno,131-9980 Arcu. St.,Nevada,95268,US,1 (562) 327-5485
Fort Smith,Ap #942-1610 Donec Rd.,Arkansas,72509,US,1 (958) 922-0325
Colchester,"P.O. Box 131, 433 Metus Street",Vermont,29732,US,1 (821) 573-9859
Rockford,681-6427 Purus Avenue,Illinois,32386,US,1 (827) 546-0325
Worcester,Ap #589-269 Sed Rd.,Massachusetts,43420,US,1 (546) 573-4957
Columbia,5821 Quam Rd.,Missouri,58680,US,1 (132) 814-5846
Lakewood,Ap #938-5812 Nullam St.,Colorado,75215,US,1 (364) 849-3049
Las Vegas,488-6071 Nibh Road,Nevada,14866,US,1 (609) 909-6132
Denver,7440 Odio. Rd.,Colorado,87708,US,1 (193) 977-6046
Lowell,357-611 Ante. Rd.,Massachusetts,24247,US,1 (203) 195-9876
Tallahassee,"P.O. Box 480, 1771 Nec Avenue",Florida,35216,US,1 (215) 726-9629
Idaho Falls,Ap #720-7159 Leo. St.,Idaho,36455,US,1 (653) 485-5421
Fort Collins,"P.O. Box 193, 191 Morbi St.",Colorado,25439,US,1 (626) 218-7375
Baltimore,"4288 Imperdiet, Av.",Maryland,48962,US,1 (774) 418-1219
Warren,"P.O. Box 866, 5431 Varius St.",Michigan,80310,US,1 (331) 881-7919
Saint Paul,Ap #920-737 Proin Avenue,Minnesota,67514,US,1 (636) 800-5426
Meridian,"P.O. Box 401, 3772 Mollis St.",Idaho,89853,US,1 (639) 209-0497
Dallas,Ap #628-7686 Arcu. St.,Texas,34223,US,1 (578) 664-6287
Montpelier,Ap #699-9514 Phasellus Rd.,Vermont,81780,US,1 (418) 411-8255
Casper,"P.O. Box 291, 6334 Malesuada St.",Wyoming,36926,US,1 (662) 883-5173
Columbia,"P.O. Box 178, 9736 Magna St.",Maryland,56481,US,1 (129) 253-8909
Cambridge,981-9932 Urna. Av.,Massachusetts,31060,US,1 (746) 567-7301
Bangor,Ap #936-2838 Dictum St.,Maine,14823,US,1 (583) 941-1899
Essex,352-4789 Augue Road,Vermont,47547,US,1 (815) 869-8751
Kaneohe,Ap #428-2843 Ornare Street,Hawaii,37505,US,1 (178) 806-7037
South Burlington,"P.O. Box 886, 3159 Sodales Av.",Vermont,42945,US,1 (625) 317-1963
Nashville,Ap #791-6190 Aliquet. Street,Tennessee,34264,US,1 (344) 225-2620
Kailua,"P.O. Box 492, 4295 Metus. Road",Hawaii,68656,US,1 (421) 624-4425
Fort Smith,210-7786 Nonummy Rd.,Arkansas,72424,US,1 (811) 692-7491
Baltimore,3061 Proin Rd.,Maryland,69150,US,1 (191) 931-7425
Fairbanks,9143 Et Av.,Alaska,99696,US,1 (591) 683-5642
Lawton,346-8804 Donec Rd.,Oklahoma,69707,US,1 (712) 731-2796
Kansas City,2202 Sit Rd.,Kansas,46659,US,1 (553) 183-3712
Kapolei,815 Nunc. Rd.,Hawaii,40342,US,1 (501) 121-0914
Harrisburg,"P.O. Box 589, 7377 Tincidunt, Street",Pennsylvania,75374,US,1 (568) 465-6303
Laramie,"P.O. Box 101, 3377 At, St.",Wyoming,70991,US,1 (795) 990-3025
Waterbury,"P.O. Box 537, 4122 Nisi St.",Connecticut,75058,US,1 (944) 267-0663
Wyoming,4588 Enim. Street,Wyoming,28706,US,1 (293) 954-0862
Salt Lake City,Ap #325-7260 Libero. Rd.,Utah,91212,US,1 (176) 325-7572
Olathe,Ap #329-8812 Purus Av.,Kansas,20492,US,1 (623) 340-9056
Lansing,8653 Sem St.,Michigan,64317,US,1 (866) 178-8686
Atlanta,"P.O. Box 835, 7905 Porta St.",Georgia,32530,US,1 (848) 467-6615
Kearney,3073 Nullam Avenue,Nebraska,44488,US,1 (564) 245-8926
Bowling Green,Ap #676-9644 Tristique Ave,Kentucky,47785,US,1 (369) 985-6717
Paradise,960-6950 Condimentum Av.,Nevada,91922,US,1 (968) 401-0028
Stamford,"P.O. Box 334, 7417 Diam Road",Connecticut,47522,US,1 (307) 344-5934
Lafayette,715-618 Sed Av.,Louisiana,57077,US,1 (147) 770-8842
Montpelier,966-7120 Vitae St.,Vermont,52900,US,1 (716) 114-2338
Lincoln,8976 At Ave,Nebraska,31144,US,1 (743) 879-7727
Honolulu,Ap #275-7821 Auctor St.,Hawaii,99805,US,1 (858) 596-7788
Southaven,872-1147 Donec St.,Mississippi,96965,US,1 (476) 418-5713
Wyoming,1715 Sit St.,Wyoming,89069,US,1 (410) 573-2400
Dallas,"P.O. Box 447, 1711 Posuere, Street",Texas,32034,US,1 (592) 406-1877
Boise,"P.O. Box 907, 2104 Mollis Rd.",Idaho,94063,US,1 (681) 856-2952
Philadelphia,636-9300 Phasellus Road,Pennsylvania,76785,US,1 (996) 123-5263
Clarksville,Ap #513-5861 Sodales St.,Tennessee,18766,US,1 (207) 201-5606
Topeka,Ap #828-9102 Curabitur Rd.,Kansas,78732,US,1 (642) 202-6146
Chesapeake,642-3181 Varius Avenue,Virginia,66640,US,1 (259) 723-6452
Montgomery,4649 Facilisi. St.,Alabama,36827,US,1 (116) 628-4886
Bellevue,3113 Lobortis. St.,Nebraska,16340,US,1 (113) 121-3190
Indianapolis,637-784 Nibh. Avenue,Indiana,28264,US,1 (991) 444-8545
Bear,6423 At Road,Delaware,62746,US,1 (458) 878-7088
Jefferson City,"Ap #939-3587 Non, Avenue",Missouri,13948,US,1 (282) 376-0995
Grand Island,"P.O. Box 854, 5983 Feugiat. St.",Nebraska,42567,US,1 (971) 877-3009
North Las Vegas,Ap #901-5155 Elementum Road,Nevada,16669,US,1 (415) 815-0652
Rockville,448 Malesuada Street,Maryland,96947,US,1 (698) 296-8208
New Orleans,7414 Libero. Street,Louisiana,99962,US,1 (205) 615-3418
Tallahassee,"P.O. Box 280, 1211 Volutpat St.",Florida,32134,US,1 (826) 262-4175
Cambridge,"P.O. Box 803, 2801 Lectus Rd.",Massachusetts,52170,US,1 (603) 393-1515
Jonesboro,881-7043 Sed Ave,Arkansas,71554,US,1 (884) 965-2914
New Orleans,659-8023 Mi Rd.,Louisiana,35990,US,1 (343) 656-9602
Kapolei,"P.O. Box 868, 9232 Dictum. Av.",Hawaii,97396,US,1 (822) 544-6297
Miami,"233-7269 Id, Av.",Florida,39903,US,1 (698) 410-5761
Wyoming,Ap #344-360 Urna. St.,Wyoming,55641,US,1 (453) 408-3084
Milwaukee,"P.O. Box 335, 3098 Dui, Rd.",Wisconsin,46251,US,1 (420) 116-4369
Pike Creek,"P.O. Box 645, 3203 Vulputate Ave",Delaware,84962,US,1 (940) 213-0779
Newark,"P.O. Box 499, 8061 Enim St.",Delaware,28316,US,1 (880) 200-4619
Springfield,969-7386 Facilisis St.,Illinois,41534,US,1 (954) 228-4445
Augusta,593-1397 Libero. Ave,Maine,77662,US,1 (519) 116-7409
South Burlington,188-2590 Nunc Rd.,Vermont,70287,US,1 (549) 196-5058
Columbia,"P.O. Box 298, 5691 Nibh St.",Maryland,20655,US,1 (247) 278-5200
Denver,Ap #893-7495 Integer Ave,Colorado,70821,US,1 (533) 394-5529
Worcester,3935 Nisl Rd.,Massachusetts,33628,US,1 (179) 252-1557
Gary,"4492 Nec, Rd.",Indiana,46987,US,1 (112) 454-3894
Eugene,929-2858 Fermentum Ave,Oregon,54594,US,1 (346) 660-0431
Tampa,"P.O. Box 530, 8394 Enim. Avenue",Florida,80614,US,1 (786) 342-0816
Frederick,779-9851 Inceptos St.,Maryland,70988,US,1 (863) 885-6145
New Haven,Ap #627-8972 Orci Avenue,Connecticut,19233,US,1 (909) 460-8159
Cleveland,Ap #983-9732 Velit. St.,Ohio,82053,US,1 (705) 949-0796
Overland Park,"P.O. Box 295, 4094 Orci, Rd.",Kansas,83253,US,1 (469) 863-0750
Springdale,1979 Pede. St.,Arkansas,72336,US,1 (663) 187-6803
Salt Lake City,"P.O. Box 831, 1349 Quis Road",Utah,94503,US,1 (555) 822-3180
Columbus,Ap #949-3406 Ac Avenue,Ohio,79328,US,1 (417) 118-0988
Rock Springs,"P.O. Box 951, 3271 Sociis Street",Wyoming,68550,US,1 (453) 835-2278
Covington,5237 Nunc St.,Kentucky,44475,US,1 (870) 670-3877
Philadelphia,Ap #726-5467 Suspendisse St.,Pennsylvania,91247,US,1 (262) 255-9629
Colchester,"514-4200 Id, Road",Vermont,85015,US,1 (496) 585-9214
Clarksville,Ap #754-7997 Orci Rd.,Tennessee,54786,US,1 (108) 755-6856
Dallas,"P.O. Box 470, 3781 Sit Rd.",Texas,35476,US,1 (394) 109-0032